GORIZONT 1 [-]          
1 11158U 78118A   17284.38615267 -.00000217  00000-0  00000+0 0  9991
2 11158  15.1909 264.5628 3502064 195.9953 149.2424  1.00297064 91125
GORIZONT 2 [-]          
1 11440U 79062A   17283.82579079 -.00000158  00000-0  00000+0 0  9996
2 11440  12.6954 322.2571 0007353 263.6952 171.3809  1.00239684106203
GORIZONT 3 [-]          
1 11648U 79105A   17283.67694132  .00000113  00000-0  00000+0 0  9995
2 11648  12.8080 323.4492 0011800 186.3470 154.7143  1.00295360 90658
GORIZONT 4 [-]          
1 11841U 80049A   17284.85535472 -.00000210  00000-0  00000+0 0  9990
2 11841  13.8110 327.9390 0006463 280.7357  78.9578  0.98631196202286
GORIZONT 5 [-]          
1 13092U 82020A   17284.97268139 -.00000209  00000-0  00000+0 0  9995
2 13092  14.5719 332.7371 0032018 172.2450 184.5356  0.98532841 90343
GORIZONT 6 [-]          
1 13624U 82103A   17285.12636177 -.00000290  00000-0  00000+0 0  9997
2 13624  13.4343 332.6177 0003779 257.2797 126.9477  1.00184975 89143
GORIZONT 7 [-]          
1 14160U 83066A   17284.84976476 -.00000165  00000-0  00000+0 0  9990
2 14160  14.6953 340.4655 0015284 271.8617  88.7656  0.98348827123613
GORIZONT 8 [-]          
1 14532U 83118A   17285.08179166 -.00000086  00000-0  00000+0 0  9991
2 14532  14.7677 342.0598 0023101 105.8094 359.9206  0.98269425 89381
GORIZONT 9 [-]          
1 14940U 84041A   17283.62063406 -.00000280  00000-0  00000-0 0  9994
2 14940  14.0051 340.6708 0006487 226.1088 128.5076  1.00303027 90139
GORIZONT 10 [-]         
1 15144U 84078A   17285.05561453 -.00000265  00000-0  00000+0 0  9997
2 15144  14.0398 341.6335 0005649 274.0171 111.8139  1.00259086122823
GORIZONT 11 [-]         
1 15484U 85007A   17285.29906069 -.00000215  00000-0  00000+0 0  9994
2 15484  14.1007 343.4201 0002719 261.9733 156.1971  1.00163225120838
GORIZONT 12 [-]         
1 16769U 86044A   17283.62063406 -.00000258  00000-0  00000+0 0  9994
2 16769  14.4016 348.3222 0006536 250.9787  95.3930  1.00207659115476
GORIZONT 13 [-]         
1 17083U 86090A   17284.89840951 -.00000157  00000-0  00000-0 0  9992
2 17083  15.8953 354.3436 0019538 282.7632  75.2226  0.96726573 87976
GORIZONT 14 [-]         
1 17969U 87040A   17285.26566821 -.00000080  00000-0  00000+0 0  9998
2 17969  15.3888 346.6388 0026769 137.1014 226.2126  0.97657842 88894
GORIZONT 15 [-]         
1 19017U 88028A   17284.94563274 -.00000187  00000-0  00000+0 0  9992
2 19017  15.9358 357.6406 0031716 116.1736 249.4044  0.97829676 88473
GORIZONT 16 [-]         
1 19397U 88071A   17284.89354738  .00000025  00000-0  00000-0 0  9999
2 19397  14.8389 356.5488 0012773 344.2704  18.6106  0.99981670106544
GORIZONT 17 [-]         
1 19765U 89004A   17284.43430740 -.00000271  00000-0  00000-0 0  9997
2 19765  15.1681 359.5018 0016174  89.6985  52.5850  0.99067933104160
GORIZONT 18 [-]         
1 20107U 89052A   17283.92549488 -.00000147  00000-0  00000+0 0  9996
2 20107  15.1094   0.8426 0040072 268.5701  87.9321  0.99403922102881
GORIZONT 19 [-]         
1 20263U 89081A   17284.78379407  .00000082  00000-0  00000-0 0  9996
2 20263  14.8782   0.2763 0007650 238.4116 110.7921  1.00328691 15542
GORIZONT 20 [-]         
1 20659U 90054A   17284.71005396 -.00000115  00000-0  00000+0 0  9990
2 20659  15.1000   3.2001 0005684 184.3361 161.7447  1.00322518 99905
GORIZONT 21 [-]         
1 20923U 90094A   17284.88305764 -.00000368  00000-0  00000+0 0  9998
2 20923  15.0486   3.9749 0007044 216.4281 248.2758  1.00213123 98650
GORIZONT 22 [-]         
1 20953U 90102A   17284.89354738  .00000097  00000-0  00000-0 0  9996
2 20953  14.9873   4.2774 0007637 272.1102  89.1470  1.00337004 98582
GORIZONT 23 [-]         
1 21533U 91046A   17283.73660524 -.00000004  00000-0  00000+0 0  9992
2 21533  15.4532   8.0252 0010225 253.3459 104.8673  0.98905647 89367
GORIZONT 24 [-]         
1 21759U 91074A   17284.32712226 -.00000030  00000-0  00000+0 0  9995
2 21759  15.4702   9.6576 0021032 194.5420 195.3158  0.98441689 93824
GORIZONT 25 [-]         
1 21922U 92017A   17285.38942602  .00000044  00000-0  00000+0 0  9999
2 21922  15.0414   9.3753 0023151  24.0711 325.4171  0.99854124 93284
GORIZONT 26 [-]         
1 22041U 92043A   17283.97337896 -.00000215  00000-0  00000+0 0  9998
2 22041  15.0695  11.0622 0034794 195.8736 157.8219  0.99246242 92018
GORIZONT 27 [-]         
1 22245U 92082A   17284.47554722 -.00000194  00000-0  00000+0 0  9998
2 22245  14.9934  11.1743 0015032 294.4244 155.2121  1.00147373 95382
GORIZONT 28 [-]         
1 22880U 93069A   17284.65297160  .00000041  00000-0  00000+0 0  9999
2 22880  14.8472  14.5943 0028300  90.3578  27.9561  0.99648558 87547
GORIZONT 29 [-]         
1 22907U 93072A   17283.59285591 -.00000339  00000-0  00000-0 0  9992
2 22907  14.7917  14.2950 0014706 274.5221  80.9302  1.00156407 87419
GORIZONT 30 [-]         
1 23108U 94030A   17284.39420892  .00000010  00000-0  00000-0 0  9990
2 23108  14.7289  15.2869 0006475 227.9998  98.3521  1.00268187 85673
GORIZONT 31 [-]         
1 23775U 96005A   17284.81204956 -.00000140  00000-0  00000+0 0  9996
2 23775  14.1717  20.8776 0020688 169.8603 291.3022  0.99901563 79371
GORIZONT 32 [-]         
1 23880U 96034A   17283.83163259 -.00000326  00000-0  00000-0 0  9993
2 23880  14.0752  21.5159 0012362 275.8652 124.4162  1.00150853 78282
GORIZONT 33 [-]         
1 26372U 00029A   17284.90882743  .00000112  00000-0  00000-0 0  9998
2 26372  11.9814  31.1508 0003093 222.9457 136.6167  1.00171173 63639
